{
    "links": {
        "self": "http://www.neowsapp.com/rest/v1/neo/3780775?api_key=iIulBulltgU6a56xZRHN4H3l9WmuAYTsLGpBGhQ2"
    },
    "id": "3780775",
    "neo_reference_id": "3780775",
    "name": "(2017 QN2)",
    "designation": "2017 QN2",
    "nasa_jpl_url": "http://ssd.jpl.nasa.gov/sbdb.cgi?sstr=3780775",
    "absolute_magnitude_h": 28.3,
    "estimated_diameter": {
        "kilometers": {
            "estimated_diameter_min": 0.0058150704,
            "estimated_diameter_max": 0.0130028927
        },
        "meters": {
            "estimated_diameter_min": 5.8150703965,
            "estimated_diameter_max": 13.0028927004
        },
        "miles": {
            "estimated_diameter_min": 0.0036133161,
            "estimated_diameter_max": 0.0080796204
        },
        "feet": {
            "estimated_diameter_min": 19.0783155595,
            "estimated_diameter_max": 42.6604104873
        }
    },
    "is_potentially_hazardous_asteroid": false,
    "close_approach_data": [
        {
            "close_approach_date": "2012-01-21",
            "close_approach_date_full": "2012-Jan-21 09:56",
            "epoch_date_close_approach": 1327139760000,
            "relative_velocity": {
                "kilometers_per_second": "26.9023443589",
                "kilometers_per_hour": "96848.4396921876",
                "miles_per_hour": "60177.8540965151"
            },
            "miss_distance": {
                "astronomical": "0.3943854142",
                "lunar": "153.4159261238",
                "kilometers": "58999217.923387754",
                "miles": "36660414.0516048452"
            },
            "orbiting_body": "Earth"
        },
        {
            "close_approach_date": "2017-08-20",
            "close_approach_date_full": "2017-Aug-20 21:56",
            "epoch_date_close_approach": 1503266160000,
            "relative_velocity": {
                "kilometers_per_second": "15.2923348117",
                "kilometers_per_hour": "55052.4053219803",
                "miles_per_hour": "34207.4237402049"
            },
            "miss_distance": {
                "astronomical": "0.001447368",
                "lunar": "0.563026152",
                "kilometers": "216523.16990616",
                "miles": "134541.259018608"
            },
            "orbiting_body": "Earth"
        },
        {
            "close_approach_date": "2017-08-21",
            "close_approach_date_full": "2017-Aug-21 04:37",
            "epoch_date_close_approach": 1503290220000,
            "relative_velocity": {
                "kilometers_per_second": "15.3411709767",
                "kilometers_per_hour": "55228.2155162096",
                "miles_per_hour": "34316.6653578359"
            },
            "miss_distance": {
                "astronomical": "0.0017604694",
                "lunar": "0.6848225966",
                "kilometers": "263362.472440178",
                "miles": "163645.8520153364"
            },
            "orbiting_body": "Moon"
        },
        {
            "close_approach_date": "2020-07-25",
            "close_approach_date_full": "2020-Jul-25 03:35",
            "epoch_date_close_approach": 1595648100000,
            "relative_velocity": {
                "kilometers_per_second": "27.9504008377",
                "kilometers_per_hour": "100621.4430157913",
                "miles_per_hour": "62522.2516338954"
            },
            "miss_distance": {
                "astronomical": "0.4400061893",
                "lunar": "171.1624076377",
                "kilometers": "65823988.706096791",
                "miles": "40901129.9713700758"
            },
            "orbiting_body": "Earth"
        }
    ],
    "orbital_data": {
        "orbit_id": "2",
        "orbit_determination_date": "2017-08-21 06:18:09",
        "first_observation_date": "2017-08-18",
        "last_observation_date": "2017-08-20",
        "data_arc_in_days": 2,
        "observations_used": 14,
        "orbit_uncertainty": "7",
        "minimum_orbit_intersection": ".00212621",
        "jupiter_tisserand_invariant": "3.527",
        "epoch_osculation": "2459000.5",
        "eccentricity": ".616758953809417",
        "semi_major_axis": "2.048094296184064",
        "inclination": "3.275116033165803",
        "ascending_node_longitude": "326.2091052004142",
        "orbital_period": "1070.590410513074",
        "perihelion_distance": ".7849138007665463",
        "perihelion_argument": "67.70685021600758",
        "aphelion_distance": "3.311274791601582",
        "perihelion_time": "2459100.103452620220",
        "mean_anomaly": "326.5070389280855",
        "mean_motion": ".3362630530451625",
        "equinox": "J2000",
        "orbit_class": {
            "orbit_class_type": "APO",
            "orbit_class_description": "Near-Earth asteroid orbits which cross the Earth’s orbit similar to that of 1862 Apollo",
            "orbit_class_range": "a (semi-major axis) > 1.0 AU; q (perihelion) < 1.017 AU"
        }
    },
    "is_sentry_object": false
}